HORYU-4                 
1 41340U 16012D   20319.06940592  .00000795  00000-0  53149-4 0  9999
2 41340  31.0050  98.9073 0013778 194.7490 165.2744 15.01619395260387
E-ST@R-II               
1 41459U 16025D   20319.55904867  .00001868  00000-0  95891-4 0  9995
2 41459  98.1178  77.5319 0164339  66.8482 295.0044 15.06946813250049
AAUSAT 4                
1 41460U 16025E   20319.59022145  .00002818  00000-0  13768-3 0  9999
2 41460  98.1178  80.4589 0152690  53.7082 307.8141 15.09484251250283
BEESAT-4                
1 41619U 16040W   20319.10860255  .00002426  00000-0  10155-3 0  9993
2 41619  97.3022  14.9844 0011350  20.8719 339.2980 15.24450336232197
CANX-7                  
1 41788U 16059F   20319.52169414  .00013399  00000-0  17287-2 0  9998
2 41788  98.2573  51.4218 0033012 178.1591 181.9960 14.80745664222001
RAVAN                   
1 41849U 16067B   20318.90546732  .00000431  00000-0  40967-4 0  9994
2 41849  97.9453  71.4205 0008705 104.3191 255.8998 14.98702185219006
CELTEE 1                
1 41850U 16067C   20319.10743258  .00000323  00000-0  33116-4 0  9999
2 41850  97.9383  68.8945 0009875 109.1712 251.0579 14.97263212218893
OPTICUBE 04             
1 41851U 16067D   20319.06477110  .00000793  00000-0  74226-4 0  9994
2 41851  97.9382  68.3852 0010513 109.4796 250.7561 14.96984221218864
AEROCUBE 8D             
1 41852U 16067E   20318.94706067  .00000022  00000-0  71788-5 0  9993
2 41852  97.9386  68.1121 0010923 109.7057 250.5343 14.97007741218820
AEROCUBE 8C             
1 41853U 16067F   20318.84847369  .00000719  00000-0  67809-4 0  9995
2 41853  97.9374  67.9016 0011344 113.3794 246.8621 14.96966404218809
PROMETHEUS 2-1          
1 41854U 16067G   20318.85082564  .00001017  00000-0  92846-4 0  9996
2 41854  97.9384  68.3325 0011651 112.5441 247.7015 14.97337006218820
PROMETHEUS 2-3          
1 41855U 16067H   20319.25127300  .00001048  00000-0  95413-4 0  9997
2 41855  97.9386  68.7794 0011829 111.7439 248.5042 14.97348350218881
INS-1B                  
1 41954U 17008G   20319.28346853  .00002295  00000-0  94162-4 0  9997
2 41954  97.3382  20.8910 0010293 126.8903 233.3280 15.25195192208204
BGUSAT                  
1 41999U 17008BD  20319.19600413  .00004067  00000-0  15047-3 0  9994
2 41999  97.3520  25.8342 0009090 132.9078 227.2926 15.28215440207812
DIDO-2                  
1 42000U 17008BE  20319.15025393  .00001229  00000-0  52449-4 0  9997
2 42000  97.3384  21.2002 0009305 143.5641 216.6232 15.24750674207574
PEASSS                  
1 42015U 17008BV  20319.07796836  .00002132  00000-0  85697-4 0  9996
2 42015  97.3418  23.0474 0007246 143.0584 217.1155 15.25989609208163
AL-FARABI 1             
1 42016U 17008BW  20319.14337927  .00002740  00000-0  10628-3 0  9993
2 42016  97.3456  24.4179 0007079 141.8183 218.3558 15.26939414208360
NAYIF-1 (EO-88)         
1 42017U 17008BX  20319.44561858  .00002740  00000-0  10613-3 0  9993
2 42017  97.3450  24.7247 0007176 140.3580 219.8184 15.26985164208439
UCLSAT                  
1 42765U 17036A   20319.41579946  .00002158  00000-0  92090-4 0  9991
2 42765  97.2826   9.5021 0010262 209.8396 150.2258 15.23911145189413
LITUANICASAT-2          
1 42768U 17036D   20319.39397520  .00003440  00000-0  14156-3 0  9998
2 42768  97.2892   9.7184 0013836 200.5363 159.5321 15.24712209188685
AALTO-1                 
1 42775U 17036L   20319.09392715  .00001264  00000-0  58075-4 0  9995
2 42775  97.2796   6.5694 0012923 207.0747 152.9817 15.22087350188431
URSA MAIOR              
1 42776U 17036M   20319.39295835  .00001399  00000-0  63605-4 0  9998
2 42776  97.2809   7.2110 0012764 205.4872 154.5737 15.22296435188493
COMPASS 2               
1 42777U 17036N   20319.23911055  .00002765  00000-0  11537-3 0  9995
2 42777  97.2877   9.9173 0011438 201.3147 158.7616 15.24439097188615
DIAMOND RED             
1 42783U 17036U   20319.08669537  .00001629  00000-0  71802-4 0  9990
2 42783  97.2823   8.2903 0010882 214.6206 145.4324 15.23149742188524
PEGASUS                 
1 42784U 17036V   20319.07845766  .00001886  00000-0  81673-4 0  9992
2 42784  97.2828   8.8018 0010774 213.0476 147.0089 15.23572174188553
DIAMOND GREEN           
1 42785U 17036W   20319.08568385  .00001672  00000-0  73632-4 0  9992
2 42785  97.2826   8.3292 0010788 215.2322 144.8203 15.23146497188592
DIAMOND BLUE            
1 42786U 17036X   20319.21608011  .00001606  00000-0  70817-4 0  9998
2 42786  97.2825   8.4501 0010630 214.8612 145.1930 15.23149751188619
NUDTSAT                 
1 42787U 17036Y   20319.59003177  .00002820  00000-0  11547-3 0  9995
2 42787  97.2863  11.0618 0010311 204.7019 155.3730 15.25066073188579
SUCHAI                  
1 42788U 17036Z   20319.37417128  .00002300  00000-0  97156-4 0  9991
2 42788  97.2841   9.8238 0010391 208.9934 151.0728 15.24191403188710
SKCUBE                  
1 42789U 17036AA  20319.10872215  .00002225  00000-0  94629-4 0  9993
2 42789  97.2835   9.3692 0010253 210.3891 149.6753 15.24002687188580
VZLUSAT-1               
1 42790U 17036AB  20319.12148037  .00003014  00000-0  12334-3 0  9994
2 42790  97.2865  10.5982 0009831 206.7699 153.3033 15.25041246188652
ROBUSTA-1B              
1 42792U 17036AD  20319.24012820  .00002198  00000-0  92957-4 0  9991
2 42792  97.2838   9.7971 0009843 209.8398 150.2279 15.24209426188636
CICERO 6                
1 42793U 17036AE  20319.09973650  .00001426  00000-0  62723-4 0  9993
2 42793  97.2808   8.8600 0009095 213.6607 146.4054 15.23423313188649
D-SAT                   
1 42794U 17036AF  20319.06760093  .00000220  00000-0  24455-4 0  9997
2 42794  97.4806 344.2166 0124903 225.0164 134.0880 14.91360229184955
CORVUS BC2              
1 42846U 17042X   20319.25253030  .00000113  00000-0  16288-4 0  9997
2 42846  97.4995 195.8670 0010688 131.5062 228.7076 14.92166315181747
CORVUS BC1              
1 42847U 17042Y   20319.10391889  .00000141  00000-0  19025-4 0  9990
2 42847  97.4998 195.9226 0010318 131.0443 229.1670 14.92268561181726
MIRATA                  
1 43015U 17073C   20319.24693152  .00001899  00000-0  15204-3 0  9990
2 43015  97.7118 225.7265 0250742 279.9280  77.3717 14.80003368161377
MAKERSAT 0              
1 43016U 17073D   20319.25592074  .00001322  00000-0  10798-3 0  9997
2 43016  97.7155 225.8795 0253815 281.3453  75.9343 14.79471959161351
DELLINGR (RBLE)         
1 43021U 98067NJ  20318.92662243  .00034466  00000-0  21745-3 0  9993
2 43021  51.6345 233.4430 0001396 150.7067 209.4012 15.76296954170392
AEROCUBE 7B (OCSD B)    
1 43042U 17071F   20318.54273120  .00007907  00000-0  17413-3 0  9999
2 43042  51.6384  54.3977 0003869 231.5552 128.5088 15.44909552165419
AEROCUBE 7C (OCSD C)    
1 43043U 17071G   20318.87210734  .00007977  00000-0  17572-3 0  9991
2 43043  51.6384  52.8627 0004054 237.8951 122.1643 15.44884751165436
CHEFSAT                 
1 43044U 17071H   20318.92046951  .00013219  00000-0  22975-3 0  9995
2 43044  51.6385  31.7762 0003322 258.1101 101.9516 15.51147061165724
ASGARDIA 1              
1 43049U 17071N   20318.67037766  .00007236  00000-0  16045-3 0  9999
2 43049  51.6396  53.1076 0001861 255.5508 104.5272 15.44846959165413
ISARA                   
1 43050U 17071P   20318.95175445  .00013275  00000-0  24230-3 0  9994
2 43050  51.6366  35.5736 0001753 277.8186  82.2603 15.49748800165677
PROPCUBE 2 (FAUNA)      
1 43052U 17071R   20319.44928328  .00007507  00000-0  16296-3 0  9991
2 43052  51.6388  47.0733 0001783 257.8111 102.2677 15.45420710165551
CORVUS BC3              
1 43118U 18004H   20319.37771528  .00001327  00000-0  58329-4 0  9999
2 43118  97.4296  28.3206 0008824 241.8337 118.2009 15.23623531157822
MICROMAS-2A             
1 43131U 18004W   20319.46232962  .00003362  00000-0  13405-3 0  9994
2 43131  97.4361  30.7099 0007635 236.7870 123.2636 15.25871579157967
SPACEBEE-4              
1 43139U 18004AE  20319.09659266  .00005046  00000-0  19068-3 0  9993
2 43139  97.4408  31.9230 0007018 236.8173 123.2394 15.27423203157992
SPACEBEE-3              
1 43140U 18004AF  20319.14088196  .00006320  00000-0  23023-3 0  9991
2 43140  97.4430  32.9147 0006769 233.2984 126.7635 15.28537310158050
SPACEBEE-2              
1 43141U 18004AG  20319.15304468  .00006775  00000-0  24376-3 0  9992
2 43141  97.4446  33.2901 0006751 232.0986 127.9644 15.28916652158075
SPACEBEE-1              
1 43142U 18004AH  20319.34409445  .00006726  00000-0  23872-3 0  9991
2 43142  97.4452  33.8413 0006755 230.6143 129.4499 15.29368281158110
CICERO 7                
1 43143U 18004AJ  20319.13371688  .00003039  00000-0  12152-3 0  9999
2 43143  97.4338  30.5260 0005754 247.8376 112.2252 15.25862343157934
GOMX-4B                 
1 43196U 18015E   20319.14859560  .00000726  00000-0  32393-4 0  9990
2 43196  97.4585  86.7507 0017127 299.7665  60.1868 15.24515022154701
GOMX-4A                 
1 43197U 18015F   20319.55300453  .00001394  00000-0  58997-4 0  9998
2 43197  97.4573  87.2918 0017463 299.7343 190.8376 15.24769096154782
UBAKUSAT                
1 43467U 98067NQ  20318.93558045  .00124617  16826-4  40418-3 0  9995
2 43467  51.6309 226.4700 0003626 153.5561 206.5630 15.90583314143755
CUBERRT                 
1 43546U 98067NU  20319.13718385  .00485572  10930-3  10794-2 0  9993
2 43546  51.6300 227.1117 0006240 191.4513 168.6355 15.97292323133897
TEMPEST-D               
1 43547U 98067NV  20319.33758526  .00040146  00000-0  37621-3 0  9994
2 43547  51.6356 273.8411 0003129 237.0520 123.0175 15.66794875132970
RAINCUBE                
1 43548U 98067NW  20319.12596662  .00156037  20047-4  50178-3 0  9999
2 43548  51.6278 234.4472 0002787 166.6218 193.4862 15.90647914133922
HALOSAT                 
1 43549U 98067NX  20319.21377781  .00132923  00000-0  48815-3 0  9995
2 43549  51.6331 236.7156 0001700 170.6757 189.4279 15.87385829133460
